NORAD_CAT_ID,OBJECT_NAME,OBJECT_TYPE,EPOCH,MEAN_MOTION,ECCENTRICITY,INCLINATION,RA_OF_ASC_NODE,ARG_OF_PERICENTER,MEAN_ANOMALY,BSTAR,MEAN_MOTION_DOT,MEAN_MOTION_DDOT,TLE_LINE0,TLE_LINE1,TLE_LINE2,SEMIMAJOR_AXIS,PERIOD,APOGEE,PERIGEE,DECAYED
51147.0,STARLINK-3352,PAYLOAD,2024-04-08 14:21:53,15.0883815,0.0001759,53.2219,211.952,95.3305,264.7888,0.00016218,2.294e-05,0.0,0 STARLINK-3352,1 51147U 22005AV  24099.59853228  .00002294  00000-0  16218-3 0  9991,2 51147  53.2219 211.9520 0001759  95.3305 264.7888 15.08838150122905,6917.886,95.438,540.968,538.534,0.0
51147.0,STARLINK-3352,PAYLOAD,2024-04-08 23:54:11,15.08842423,0.0001751,53.2224,210.1685,96.3023,263.8169,0.00016777,2.383e-05,0.0,0 STARLINK-3352,1 51147U 22005AV  24099.99597010  .00002383  00000-0  16777-3 0  9998,2 51147  53.2224 210.1685 0001751  96.3023 263.8169 15.08842423122960,6917.873,95.437,540.949,538.527,0.0
51147.0,STARLINK-3352,PAYLOAD,2024-04-09 14:12:41,15.08827697,0.0002141,53.2217,207.4951,96.1737,263.9499,0.00025995,3.85e-05,0.0,0 STARLINK-3352,1 51147U 22005AV  24100.59214169  .00003850  00000-0  25995-3 0  9990,2 51147  53.2217 207.4951 0002141  96.1737 263.9499 15.08827697123055,6917.918,95.438,541.264,538.302,0.0
51147.0,STARLINK-3352,PAYLOAD,2024-04-09 23:44:59,15.0884106,0.0002239,53.2234,205.7111,100.5377,259.5867,9.0757e-05,1.156e-05,0.0,0 STARLINK-3352,1 51147U 22005AV  24100.98957485  .00001156  00000-0  90757-4 0  9994,2 51147  53.2234 205.7111 0002239 100.5377 259.5867 15.08841060124232,6917.877,95.437,541.291,538.193,0.0
51147.0,STARLINK-3352,PAYLOAD,2024-04-10 14:03:28,15.08835409,0.0002309,53.2242,203.0343,98.9646,261.1608,1.9833e-05,2.7e-07,0.0,0 STARLINK-3352,1 51147U 22005AV  24101.58574123  .00000027  00000-0  19833-4 0  9997,2 51147  53.2242 203.0343 0002309  98.9646 261.1608 15.08835409123204,6917.894,95.438,541.357,538.162,0.0
51147.0,STARLINK-3352,PAYLOAD,2024-04-11 13:54:14,15.08839053,0.0001473,53.2193,198.5718,80.9549,279.1609,8.6711e-05,1.092e-05,0.0,0 STARLINK-3352,1 51147U 22005AV  24102.57933811  .00001092  00000-0  86711-4 0  9992,2 51147  53.2193 198.5718 0001473  80.9549 279.1609 15.08839053123352,6917.883,95.438,540.767,538.729,0.0
51147.0,STARLINK-3352,PAYLOAD,2024-04-11 23:26:32,15.08848217,0.0001935,53.2189,196.7878,89.7182,270.4032,0.00014513,2.023e-05,0.0,0 STARLINK-3352,1 51147U 22005AV  24102.97677007  .00002023  00000-0  14513-3 0  9993,2 51147  53.2189 196.7878 0001935  89.7182 270.4032 15.08848217124534,6917.855,95.437,541.059,538.382,0.0
51147.0,STARLINK-3352,PAYLOAD,2024-04-12 12:09:39,15.08832702,0.0002175,53.2179,194.4072,89.2864,270.8378,4.593e-05,4.43e-06,0.0,0 STARLINK-3352,1 51147U 22005AV  24103.50670488  .00000443  00000-0  45930-4 0  9991,2 51147  53.2179 194.4072 0002175  89.2864 270.8378 15.08832702124611,6917.903,95.438,541.272,538.263,0.0
51147.0,STARLINK-3352,PAYLOAD,2024-04-12 13:45:02,15.08834462,0.0001725,53.2188,194.1102,88.8133,271.3057,4.5273e-05,4.32e-06,0.0,0 STARLINK-3352,1 51147U 22005AV  24103.57294326  .00000432  00000-0  45273-4 0  9999,2 51147  53.2188 194.1102 0001725  88.8133 271.3057 15.08834462123508,6917.897,95.438,540.956,538.569,0.0
51147.0,STARLINK-3352,PAYLOAD,2024-04-13 05:38:52,15.08843794,0.0001546,53.2183,191.1374,89.4381,270.6788,0.0001256,1.712e-05,0.0,0 STARLINK-3352,1 51147U 22005AV  24104.23533553  .00001712  00000-0  12560-3 0  9995,2 51147  53.2183 191.1374 0001546  89.4381 270.6788 15.08843794124720,6917.869,95.437,540.803,538.664,0.0
51147.0,STARLINK-3352,PAYLOAD,2024-04-13 12:00:25,15.08848118,0.0001442,53.2181,189.9466,88.4707,271.645,9.2259e-05,1.181e-05,0.0,0 STARLINK-3352,1 51147U 22005AV  24104.50029427  .00001181  00000-0  92259-4 0  9999,2 51147  53.2181 189.9466 0001442  88.4707 271.6450 15.08848118123643,6917.856,95.437,540.718,538.723,0.0
51147.0,STARLINK-3352,PAYLOAD,2024-04-14 11:51:12,15.08841415,0.0001389,53.2164,185.4852,92.1429,267.9722,0.00012094,1.637e-05,0.0,0 STARLINK-3352,1 51147U 22005AV  24105.49389888  .00001637  00000-0  12094-3 0  9992,2 51147  53.2164 185.4852 0001389  92.1429 267.9722 15.08841415124911,6917.876,95.437,540.702,538.78,0.0
51147.0,STARLINK-3352,PAYLOAD,2024-04-15 14:52:46,15.08840736,0.0001538,53.2169,180.4304,110.4108,249.7049,7.6716e-05,9.33e-06,0.0,0 STARLINK-3352,1 51147U 22005AV  24106.61997830  .00000933  00000-0  76716-4 0  9999,2 51147  53.2169 180.4304 0001538 110.4108 249.7049 15.08840736123966,6917.878,95.438,540.807,538.679,0.0
51147.0,STARLINK-3352,PAYLOAD,2024-04-16 11:32:46,15.08842985,0.0001404,53.2171,176.571,85.469,274.6462,0.00019082,2.751e-05,0.0,0 STARLINK-3352,1 51147U 22005AV  24107.48109842  .00002751  00000-0  19082-3 0  9995,2 51147  53.2171 176.5710 0001404  85.4690 274.6462 15.08842985124094,6917.871,95.437,540.708,538.765,0.0
51147.0,STARLINK-3352,PAYLOAD,2024-04-17 05:02:01,15.08843015,0.0001253,53.2166,173.2991,88.606,271.5076,0.00010831,1.436e-05,0.0,0 STARLINK-3352,1 51147U 22005AV  24108.20973816  .00001436  00000-0  10831-3 0  9998,2 51147  53.2166 173.2991 0001253  88.6060 271.5076 15.08843015125320,6917.871,95.437,540.603,538.869,0.0
51147.0,STARLINK-3352,PAYLOAD,2024-04-17 09:48:11,15.0882469,0.0001438,53.2166,172.4032,108.5016,251.6132,-0.00017395,-3.054e-05,0.0,0 STARLINK-3352,1 51147U 22005AV  24108.40846589 -.00003054  00000-0 -17395-3 0  9998,2 51147  53.2166 172.4032 0001438 108.5016 251.6132 15.08824690125358,6917.927,95.439,540.787,538.797,0.0
51147.0,STARLINK-3352,PAYLOAD,2024-04-17 20:55:53,15.08838043,0.0001158,53.217,170.3225,98.9421,261.1702,3.8614e-05,3.27e-06,0.0,0 STARLINK-3352,1 51147U 22005AV  24108.87214197  .00000327  00000-0  38614-4 0  9999,2 51147  53.2170 170.3225 0001158  98.9421 261.1702 15.08838043125429,6917.886,95.438,540.552,538.95,0.0
51147.0,STARLINK-3352,PAYLOAD,2024-04-18 11:14:22,15.08828044,0.0001602,53.2174,167.6465,89.4777,270.6399,-5.2179e-05,-1.118e-05,0.0,0 STARLINK-3352,1 51147U 22005AV  24109.46831183 -.00001118  00000-0 -52179-4 0  9998,2 51147  53.2174 167.6465 0001602  89.4777 270.6399 15.08828044125518,6917.917,95.438,540.89,538.674,0.0
51147.0,STARLINK-3352,PAYLOAD,2024-04-19 12:40:32,15.08839896,0.0001692,53.2173,162.889,102.623,257.4952,0.0003527,5.33e-05,0.0,0 STARLINK-3352,1 51147U 22005AV  24110.52815271  .00005330  00000-0  35270-3 0  9997,2 51147  53.2173 162.8890 0001692 102.6230 257.4952 15.08839896125679,6917.881,95.438,540.916,538.575,0.0
51147.0,STARLINK-3352,PAYLOAD,2024-04-20 02:58:59,15.08865191,0.0001644,53.2171,160.2118,84.2622,275.8558,0.00063621,9.859e-05,0.0,0 STARLINK-3352,1 51147U 22005AV  24111.12430030  .00009859  00000-0  63621-3 0  9991,2 51147  53.2171 160.2118 0001644  84.2622 275.8558 15.08865191125762,6917.803,95.436,540.806,538.531,0.0
51147.0,STARLINK-3352,PAYLOAD,2024-04-20 12:31:17,15.08884879,0.0001543,53.2161,158.4262,85.4346,274.6822,0.00086447,0.00013514,0.0,0 STARLINK-3352,1 51147U 22005AV  24111.52172956  .00013514  00000-0  86447-3 0  9999,2 51147  53.2161 158.4262 0001543  85.4346 274.6822 15.08884879124702,6917.743,95.435,540.676,538.541,0.0
51147.0,STARLINK-3352,PAYLOAD,2024-04-21 02:49:45,15.08842668,0.0001198,53.2156,155.7493,96.8633,263.2495,-0.00037741,-6.29e-05,0.0,0 STARLINK-3352,1 51147U 22005AV  24112.11789228 -.00006290  00000-0 -37741-3 0  9999,2 51147  53.2156 155.7493 0001198  96.8633 263.2495 15.08842668125917,6917.872,95.437,540.566,538.908,0.0
51147.0,STARLINK-3352,PAYLOAD,2024-04-21 12:22:05,15.08806115,0.0001492,53.2159,153.9648,109.0035,251.1119,-0.00061287,-0.00010019,0.0,0 STARLINK-3352,1 51147U 22005AV  24112.51534430 -.00010019  00000-0 -61287-3 0  9992,2 51147  53.2159 153.9648 0001492 109.0035 251.1119 15.08806115124850,6917.984,95.44,540.881,538.817,0.0
51147.0,STARLINK-3352,PAYLOAD,2024-04-22 02:40:35,15.08822366,0.0001271,53.2165,151.2933,76.9543,283.1591,0.001217,0.00019124,0.0,0 STARLINK-3352,1 51147U 22005AV  24113.11151849  .00019124  00000-0  12170-2 0  9998,2 51147  53.2165 151.2933 0001271  76.9543 283.1591 15.08822366126066,6917.934,95.439,540.679,538.92,0.0
51147.0,STARLINK-3352,PAYLOAD,2024-04-22 09:02:07,15.08850813,0.0001436,53.2163,150.1005,102.0671,258.0482,0.0020531,0.00032548,0.0,0 STARLINK-3352,1 51147U 22005AV  24113.37647738  .00032548  00000-0  20531-2 0  9998,2 51147  53.2163 150.1005 0001436 102.0671 258.0482 15.08850813126101,6917.847,95.437,540.706,538.719,0.0
51147.0,STARLINK-3352,PAYLOAD,2024-04-22 12:12:53,15.08859085,0.0001434,53.2162,149.5055,100.4609,259.6545,0.0019955,0.0003163,0.0,0 STARLINK-3352,1 51147U 22005AV  24113.50895595  .00031630  00000-0  19955-2 0  9998,2 51147  53.2162 149.5055 0001434 100.4609 259.6545 15.08859085125003,6917.822,95.436,540.679,538.695,0.0
51147.0,STARLINK-3352,PAYLOAD,2024-04-23 08:52:54,15.08851046,0.000173,53.2168,145.6385,118.7654,241.3512,0.00032591,4.904e-05,0.0,0 STARLINK-3352,1 51147U 22005AV  24114.37007127  .00004904  00000-0  32591-3 0  9996,2 51147  53.2168 145.6385 0001730 118.7654 241.3512 15.08851046126252,6917.847,95.437,540.908,538.515,0.0
51147.0,STARLINK-3352,PAYLOAD,2024-04-24 11:54:27,15.08838517,0.0001458,53.2164,140.5825,105.4619,254.6535,-5.0341e-05,-1.089e-05,0.0,0 STARLINK-3352,1 51147U 22005AV  24115.49615434 -.00001089  00000-0 -50341-4 0  9993,2 51147  53.2164 140.5825 0001458 105.4619 254.6535 15.08838517126421,6917.885,95.438,540.759,538.741,0.0
51147.0,STARLINK-3352,PAYLOAD,2024-04-25 08:34:28,15.08837539,0.0001378,53.2171,136.7181,96.7281,263.3868,4.6463e-05,4.52e-06,0.0,0 STARLINK-3352,1 51147U 22005AV  24116.35727758  .00000452  00000-0  46463-4 0  9993,2 51147  53.2171 136.7181 0001378  96.7281 263.3868 15.08837539125438,6917.888,95.438,540.706,538.8,0.0
51147.0,STARLINK-3352,PAYLOAD,2024-04-26 10:00:38,15.08838699,0.0001372,53.217,131.9601,94.4969,265.618,0.00010893,1.446e-05,0.0,0 STARLINK-3352,1 51147U 22005AV  24117.41711716  .00001446  00000-0  10893-3 0  9999,2 51147  53.2170 131.9601 0001372  94.4969 265.6180 15.08838699126715,6917.884,95.438,540.698,538.8,0.0
